satname,norad_id,inclination_deg,eccentricity,mean_motion_rev_per_day,perigee_km,apogee_km,l1,l2
STARLINK-1265,45406,53.1585,0.0001647,15.31005696,471.68211039483685,473.93881248863545,1 45406U 20019AY  26088.16216408  .00026133  00000+0  86944-3 0  9991,2 45406  53.1585  38.8723 0001647 106.8940 253.2241 15.31005696332952
STARLINK-1278,45408,53.0449,0.0003573,15.58986856,388.16957071870274,393.0065016295521,1 45408U 20019BA  26088.09456189  .00110614  00000+0  13836-2 0  9994,2 45408  53.0449  36.1999 0003573 108.5021 251.6379 15.58986856332989
STARLINK-1296,45412,53.1572,0.000219,15.31603497,469.52771368642243,472.5276478165906,1 45412U 20019BE  26088.15117108  .00055540  00000+0  17936-2 0  9992,2 45412  53.1572  38.7723 0002190 125.1023 235.0184 15.31603497332951
STARLINK-1298,45413,53.0202,0.000623,16.34465515,176.48045559332786,184.65260018908157,1 45413U 20019BF  26088.06199933  .05321526  12203-4  72346-3 0  9994,2 45413  53.0202 312.4958 0006230 265.4997  94.5335 16.34465515334230
STARLINK-1309,45414,53.067,0.0006968,15.58404512,387.5565317307655,396.99177671529196,1 45414U 20019BG  26088.21040046  .00121593  00000+0  15508-2 0  9992,2 45414  53.0670  29.0377 0006968 104.3347 255.8438 15.58404512333076
STARLINK-1316,45415,53.1607,0.00015,15.31616232,469.96234564842325,472.01708366282037,1 45415U 20019BH  26088.13109075  .00054665  00000+0  17651-2 0  9998,2 45415  53.1607  38.9174 0001500 139.6631 220.4481 15.31616232332975
STARLINK-1286,45417,53.0497,0.0003795,15.52334021,407.3373251315106,412.48945537771306,1 45417U 20019BK  26088.12337767  .00046337  00000+0  75098-3 0  9997,2 45417  53.0497  37.2417 0003795 108.2640 251.8782 15.52334021333244
STARLINK-1308,45419,53.0528,0.0005649,15.54027361,401.1496618440151,408.8132290636895,1 45419U 20019BM  26088.18983611  .00117939  00000+0  17703-2 0  9995,2 45419  53.0528  58.2099 0005649  88.1339 272.0318 15.54027361332709
STARLINK-1329,45531,53.0477,7.68e-05,15.65081328,372.4863837226212,373.52335911407044,1 45531U 20025A   26087.98922790  .00061158  00000+0  61023-3 0  9991,2 45531  53.0477 347.3374 0000768 122.2977 237.8112 15.65081328328464
STARLINK-1338,45532,53.0496,0.0004505,15.57800034,390.97461093510265,397.07632932068736,1 45532U 20025B   26087.90219920  .00099126  00000+0  12989-2 0  9990,2 45532  53.0496 351.6453 0004505  84.3112 275.8413 15.57800034328396
STARLINK-1350,45535,53.0734,0.0002152,15.36591884,454.72549592559517,457.6669929540021,1 45535U 20025E   26087.91586695  .00012974  00000+0  36798-3 0  9991,2 45535  53.0734 302.8166 0002152 106.5955 253.5283 15.36591884329117
STARLINK-1362,45538,53.1625,0.0001268,15.30240447,474.2253148986092,475.9632943574634,1 45538U 20025H   26088.11921030 -.00114188  00000+0 -38975-2 0  9993,2 45538  53.1625  10.7456 0001268  89.7591 270.3555 15.30240447328154
STARLINK-1368,45540,53.1611,0.0001307,15.30188012,474.3551258663774,476.14660145393736,1 45540U 20025K   26088.06400226 -.00001586  00000+0 -41445-4 0  9994,2 45540  53.1611  11.3345 0001307  87.8208 272.2942 15.30188012328132
STARLINK-1371,45542,53.0507,0.000172,15.50178779,415.03500732694283,417.37226050500976,1 45542U 20025M   26088.04373352  .00083287  00000+0  14445-2 0  9997,2 45542  53.0507 356.7406 0001720 108.9024 251.2171 15.50178779328335
STARLINK-1372,45543,53.162,0.0001402,15.30198998,474.25722083276287,476.17890159192666,1 45543U 20025N   26088.04077477  .00003052  00000+0  11515-3 0  9995,2 45543  53.1620  11.1399 0001402  87.2570 272.8591 15.30198998327234
STARLINK-1373,45544,53.0499,0.0004466,15.54071446,401.8238817188594,407.88244853435117,1 45544U 20025P   26088.13882478  .00093530  00000+0  14078-2 0  9997,2 45544  53.0499 355.2958 0004466  92.2977 267.8544 15.54071446328362
STARLINK-1327,45555,53.0463,0.0006334,15.57541127,390.48596845733846,399.0658945589721,1 45555U 20025AA  26088.05163179  .00062031  00000+0  82665-3 0  9990,2 45555  53.0463 332.8880 0006334 135.6073 224.5447 15.57541127328661
STARLINK-1356,45564,53.0506,0.0005204,15.4765629,420.0446393732873,427.12387085561113,1 45564U 20025AK  26087.99163861  .00078390  00000+0  14860-2 0  9996,2 45564  53.0506 341.7498 0005204 112.8657 247.2900 15.47656290328532
STARLINK-1357,45565,53.0505,0.0003653,15.59423677,386.8518006048889,391.7961075779476,1 45565U 20025AL  26087.90002922  .00068118  00000+0  84488-3 0  9999,2 45565  53.0505 304.7797 0003653 198.4179 161.6702 15.59423677329059
STARLINK-1361,45567,53.0503,0.0007009,15.50906191,409.31833172890947,418.8396601119912,1 45567U 20025AN  26088.17057379  .00109973  00000+0  18487-2 0  9997,2 45567  53.0503 340.5227 0007009 100.9918 259.1879 15.50906191328575
STARLINK-1363,45568,53.04,0.0005273,15.81587232,322.4164709035449,329.4866026744412,1 45568U 20025AP  26088.00002314  .00213289  00000+0  10226-2 0  9998,2 45568  53.0400 300.9327 0005273 132.7094 223.4952 15.81587232  5991
STARLINK-1366,45569,53.0401,0.0005731,15.80249456,325.8903307794508,333.57889322112624,1 45569U 20025AQ  26088.00002314  .00204632  00000+0  10444-2 0  9993,2 45569  53.0401 301.8651 0005731 128.9206  65.8007 15.80249456  5906
STARLINK-1376,45570,53.1625,0.0001623,15.3168795,469.6643373178613,471.8874944503568,1 45570U 20025AR  26087.97969557  .00051355  00000+0  16559-2 0  9996,2 45570  53.1625 348.1239 0001623 150.8686 209.2406 15.31687950328451
STARLINK-1320,45572,53.046,0.0004767,15.71797302,350.551206648126,356.9693975359414,1 45572U 20025AT  26088.15573642  .00114844  00000+0  86077-3 0  9991,2 45572  53.0460 249.4522 0004767 102.2263 257.9289 15.71797302329863
STARLINK-1321,45573,53.0487,0.0004207,15.51536892,409.38146616073664,415.0948878346635,1 45573U 20025AU  26088.03710728  .00084187  00000+0  13908-2 0  9995,2 45573  53.0487 325.6422 0004207 136.9138 223.2201 15.51536892328461
STARLINK-1331,45578,53.0527,0.0005385,15.51472803,408.7684580789264,416.081893542274,1 45578U 20025AZ  26088.17450777  .00101830  00000+0  16805-2 0  9994,2 45578  53.0527 331.6779 0005385 157.7839 202.3404 15.51472803328701
STARLINK-1333,45580,53.162,0.0001334,15.30210432,474.2696885137302,476.0981545355917,1 45580U 20025BB  26088.15715536  .00000667  00000+0  34624-4 0  9999,2 45580  53.1620 347.3843 0001334 103.7794 256.3355 15.30210432328480
STARLINK-1335,45581,53.1571,0.0001356,15.29365745,476.77748425883965,478.63678918871847,1 45581U 20025BC  26087.98142153  .00001613  00000+0  68208-4 0  9996,2 45581  53.1571 345.5513 0001356  86.8453 273.2702 15.29365745328487
STARLINK-1337,45582,53.0527,0.0004969,15.61693756,379.40474883099796,386.12373248396307,1 45582U 20025BD  26088.16423025  .00135192  00000+0  15185-2 0  9992,2 45582  53.0527 326.9433 0004969 165.0160 195.1001 15.61693756328756
STARLINK-1347,45586,53.043,0.0003734,15.57813304,391.45830053087866,396.51572274276896,1 45586U 20025BH  26088.00002314  .00155118  00000+0  20139-2 0  9998,2 45586  53.0430 295.9706 0003734 142.3183 137.3711 15.57813304  5928
STARLINK-1364,45589,53.0501,0.0007293,15.52805038,403.59110375899945,413.49015174683973,1 45589U 20025BL  26088.08062745  .00083788  00000+0  13219-2 0  9997,2 45589  53.0501 329.9827 0007293 133.6598 226.5017 15.52805038328703
STARLINK-1365,45590,53.0526,0.0004288,15.48146409,419.2326709897807,425.0645959490439,1 45590U 20025BM  26088.05231364  .00078939  00000+0  14712-2 0  9992,2 45590  53.0526   1.0793 0004288 117.7120 242.4323 15.48146409328282
STARLINK-1443,45660,53.1359,0.0003341,15.26784652,483.13856957243115,487.7248061696655,1 45660U 20035D   26088.10160914  .00045409  00000+0  17045-2 0  9997,2 45660  53.1359 335.2750 0003341 135.8158 224.3108 15.26784652321727
STARLINK-1446,45663,53.023,0.0001449,15.43670761,434.29931515314,436.2738453066913,1 45663U 20035G   26087.78565261  .00024607  00000+0  54480-3 0  9999,2 45663  53.0230 268.6134 0001449   1.2844 358.8164 15.43670761322626
STARLINK-1448,45665,53.0496,0.0007254,15.5618111,393.80552695592905,403.6373932098177,1 45665U 20035J   26088.13373308  .00125249  00000+0  17345-2 0  9992,2 45665  53.0496 318.8248 0007254 157.1493 202.9842 15.56181110321942
STARLINK-1451,45668,53.0537,0.0002048,15.11028303,531.6472820831268,534.4781094785176,1 45668U 20035M   26088.13266335  .00030143  00000+0  17928-2 0  9991,2 45668  53.0537 338.2116 0002048  94.3812 265.7413 15.11028303321681
STARLINK-1452,45669,53.0304,0.0005198,15.48007937,419.019159737315,426.0891582662125,1 45669U 20035N   26087.87302236  .00083015  00000+0  15532-2 0  9998,2 45669  53.0304 290.1148 0005198 127.2912 232.8569 15.48007937322331
STARLINK-1453,45670,53.0455,0.0003333,15.56463937,395.642027666433,400.1589342512407,1 45670U 20035P   26087.92892301  .00114372  00000+0  15713-2 0  9995,2 45670  53.0455 280.3673 0003333 126.2465 233.8854 15.56463937322361
STARLINK-1454,45671,53.0498,0.0007087,15.54779347,397.98847038250096,407.59976214669314,1 45671U 20035Q   26087.92874086  .00099820  00000+0  14617-2 0  9998,2 45671  53.0498 320.1268 0007087 139.8553 220.2982 15.54779347321904
STARLINK-1456,45673,53.0487,0.000236,15.52991546,406.3957208478687,409.59877621317446,1 45673U 20035S   26087.88005528  .00090788  00000+0  14221-2 0  9997,2 45673  53.0487 314.0418 0002360 197.4042 162.6886 15.52991546322004
STARLINK-1457,45674,53.0433,0.0004905,15.8450136,314.44483148984455,321.01347618675845,1 45674U 20035T   26088.25003471  .00186021  00000+0  78058-3 0  9990,2 45674  53.0433 284.0682 0004905 155.8955 154.6548 15.84501360  6048
STARLINK-1458,45675,53.0532,0.0006379,15.45405394,425.8441325251115,434.53019249163935,1 45675U 20035U   26088.02972353  .00076693  00000+0  15712-2 0  9990,2 45675  53.0532 323.5086 0006379 148.4347 211.7042 15.45405394321845
STARLINK-1460,45676,53.1611,0.0001597,15.30196154,474.1320707467312,476.32103506552994,1 45676U 20035V   26088.06284257  .00000283  00000+0  21690-4 0  9990,2 45676  53.1611 334.9625 0001597  88.1527 271.9656 15.30196154321683
